NORAD_CAT_ID,OBJECT_NAME,OBJECT_TYPE,EPOCH,MEAN_MOTION,ECCENTRICITY,INCLINATION,RA_OF_ASC_NODE,ARG_OF_PERICENTER,MEAN_ANOMALY,BSTAR,MEAN_MOTION_DOT,MEAN_MOTION_DDOT,TLE_LINE0,TLE_LINE1,TLE_LINE2,SEMIMAJOR_AXIS,PERIOD,APOGEE,PERIGEE,DECAYED
50194.0,STARLINK-3269,PAYLOAD,2023-03-25 04:31:02,15.08851401,0.0001077,53.2167,49.6787,86.8408,273.2707,2.4355e-05,1e-06,0.0,0 STARLINK-3269,1 50194U 21125AQ  23084.18822684  .00000100  00000-0  24355-4 0  9990,2 50194  53.2167  49.6787 0001077  86.8408 273.2707 15.08851401 73130,6917.846,95.437,540.456,538.965,0.0
50194.0,STARLINK-3269,PAYLOAD,2023-03-25 06:06:25,15.08850952,0.0001108,53.2164,49.3806,86.2516,273.8603,0.00012211,1.657e-05,0.0,0 STARLINK-3269,1 50194U 21125AQ  23084.25446702  .00001657  00000-0  12211-3 0  9996,2 50194  53.2164  49.3806 0001108  86.2516 273.8603 15.08850952 73675,6917.847,95.437,540.478,538.945,0.0
50194.0,STARLINK-3269,PAYLOAD,2023-03-26 04:21:50,15.08829125,0.0001175,53.2184,45.2201,85.4704,274.6422,-9.9417e-05,-1.869e-05,0.0,0 STARLINK-3269,1 50194U 21125AQ  23085.18183655 -.00001869  00000-0 -99417-4 0  9995,2 50194  53.2184  45.2201 0001175  85.4704 274.6422 15.08829125 73288,6917.914,95.438,540.591,538.966,0.0
50194.0,STARLINK-3269,PAYLOAD,2023-03-26 07:32:36,15.08838778,0.0001074,53.2163,44.6214,87.3314,272.7801,-0.00018509,-3.232e-05,0.0,0 STARLINK-3269,1 50194U 21125AQ  23085.31431249 -.00003232  00000-0 -18509-3 0  9993,2 50194  53.2163  44.6214 0001074  87.3314 272.7801 15.08838778 73305,6917.884,95.438,540.492,539.006,0.0
50194.0,STARLINK-3269,PAYLOAD,2023-03-27 04:12:39,15.08823501,9.92e-05,53.2177,40.7599,103.44,256.6703,-4.9829e-05,-1.08e-05,0.0,0 STARLINK-3269,1 50194U 21125AQ  23086.17546118 -.00001080  00000-0 -49829-4 0  9999,2 50194  53.2177  40.7599 0000992 103.4400 256.6703 15.08823501 73431,6917.931,95.439,540.482,539.11,0.0
50194.0,STARLINK-3269,PAYLOAD,2023-03-27 05:48:01,15.08838437,0.0001108,53.2183,40.4599,83.0672,277.0446,7.8693e-05,9.65e-06,0.0,0 STARLINK-3269,1 50194U 21125AQ  23086.24168863  .00000965  00000-0  78693-4 0  9994,2 50194  53.2183  40.4599 0001108  83.0672 277.0446 15.08838437 73445,6917.885,95.438,540.517,538.984,0.0
50194.0,STARLINK-3269,PAYLOAD,2023-03-28 07:14:09,15.08869921,0.0001049,53.2175,35.7003,80.8439,279.2672,0.00042204,6.441e-05,0.0,0 STARLINK-3269,1 50194U 21125AQ  23087.30150072  .00006441  00000-0  42204-3 0  9998,2 50194  53.2175  35.7003 0001049  80.8439 279.2672 15.08869921 73608,6917.789,95.436,540.38,538.928,0.0
50194.0,STARLINK-3269,PAYLOAD,2023-03-28 19:57:17,15.08834033,0.0001312,53.217,33.3192,117.0645,243.0481,0.00032301,4.856e-05,0.0,0 STARLINK-3269,1 50194U 21125AQ  23087.83144847  .00004856  00000-0  32301-3 0  9994,2 50194  53.2170  33.3192 0001312 117.0645 243.0481 15.08834033 73682,6917.899,95.438,540.671,538.856,0.0
50194.0,STARLINK-3269,PAYLOAD,2023-03-29 05:29:34,15.08857786,0.0001086,53.2186,31.5355,110.1771,249.9338,0.00035737,5.407e-05,0.0,0 STARLINK-3269,1 50194U 21125AQ  23088.22887338  .00005407  00000-0  35737-3 0  9996,2 50194  53.2186  31.5355 0001086 110.1771 249.9338 15.08857786 73745,6917.826,95.436,540.442,538.94,0.0
50194.0,STARLINK-3269,PAYLOAD,2023-03-30 05:20:22,15.08856781,0.0001343,53.2188,27.0732,109.9761,250.1376,-0.00016898,-2.977e-05,0.0,0 STARLINK-3269,1 50194U 21125AQ  23089.22247729 -.00002977  00000-0 -16898-3 0  9999,2 50194  53.2188  27.0732 0001343 109.9761 250.1376 15.08856781 73893,6917.829,95.436,540.623,538.765,0.0
50194.0,STARLINK-3269,PAYLOAD,2023-03-30 13:17:17,15.08842736,0.0001291,53.2179,25.5906,82.2323,277.8815,-0.00022597,-3.883e-05,0.0,0 STARLINK-3269,1 50194U 21125AQ  23089.55367846 -.00003883  00000-0 -22597-3 0  9998,2 50194  53.2179  25.5906 0001291  82.2323 277.8815 15.08842736 73943,6917.872,95.437,540.63,538.844,0.0
50194.0,STARLINK-3269,PAYLOAD,2023-03-31 05:11:08,15.08856437,0.0001306,53.2178,22.6152,99.7157,260.3983,0.00020549,2.985e-05,0.0,0 STARLINK-3269,1 50194U 21125AQ  23090.21607165  .00002985  00000-0  20549-3 0  9999,2 50194  53.2178  22.6152 0001306  99.7157 260.3983 15.08856437 74046,6917.83,95.437,540.599,538.792,0.0
50194.0,STARLINK-3269,PAYLOAD,2023-03-31 19:29:38,15.08839942,0.0001414,53.218,19.9421,74.4547,285.6601,9.1111e-06,-1.43e-06,0.0,0 STARLINK-3269,1 50194U 21125AQ  23090.81224605 -.00000143  00000-0  91111-5 0  9999,2 50194  53.2180  19.9421 0001414  74.4547 285.6601 15.08839942 74139,6917.881,95.438,540.724,538.767,0.0
50194.0,STARLINK-3269,PAYLOAD,2023-04-01 05:01:56,15.08849315,0.0001295,53.2174,18.1561,74.8467,285.2668,0.00018895,2.721e-05,0.0,0 STARLINK-3269,1 50194U 21125AQ  23091.20968083  .00002721  00000-0  18895-3 0  9997,2 50194  53.2174  18.1561 0001295  74.8467 285.2668 15.08849315 74190,6917.852,95.437,540.613,538.821,0.0
50194.0,STARLINK-3269,PAYLOAD,2023-04-02 04:52:44,15.0883614,0.0001419,53.217,13.6966,78.2846,281.8305,-7.5587e-05,-1.491e-05,0.0,0 STARLINK-3269,1 50194U 21125AQ  23092.20329120 -.00001491  00000-0 -75587-4 0  9998,2 50194  53.2170  13.6966 0001419  78.2846 281.8305 15.08836140 74341,6917.892,95.438,540.739,538.776,0.0
50194.0,STARLINK-3269,PAYLOAD,2023-04-02 22:21:58,15.0883844,0.0001326,53.2178,10.4272,73.7689,286.3449,8.8576e-05,1.122e-05,0.0,0 STARLINK-3269,1 50194U 21125AQ  23092.93193075  .00001122  00000-0  88576-4 0  9997,2 50194  53.2178  10.4272 0001326  73.7689 286.3449 15.08838440 74980,6917.885,95.438,540.667,538.833,0.0
50194.0,STARLINK-3269,PAYLOAD,2023-04-03 04:43:30,15.08851923,0.0001208,53.2177,9.2368,80.4409,279.672,0.00027064,4.023e-05,0.0,0 STARLINK-3269,1 50194U 21125AQ  23093.19688415  .00004023  00000-0  27064-3 0  9990,2 50194  53.2177   9.2368 0001208  80.4409 279.6720 15.08851923 74499,6917.844,95.437,540.545,538.873,0.0
50194.0,STARLINK-3269,PAYLOAD,2023-04-04 02:58:54,15.08849767,0.0001198,53.218,5.0739,97.9779,262.1349,0.00014621,2.04e-05,0.0,0 STARLINK-3269,1 50194U 21125AQ  23094.12424656  .00002040  00000-0  14621-3 0  9991,2 50194  53.2180   5.0739 0001198  97.9779 262.1349 15.08849767 74633,6917.851,95.437,540.544,538.887,0.0
50194.0,STARLINK-3269,PAYLOAD,2023-04-04 22:03:32,15.0884131,0.0001198,53.2183,1.5062,103.7532,256.3594,-7.0481e-05,-1.409e-05,0.0,0 STARLINK-3269,1 50194U 21125AQ  23094.91912967 -.00001409  00000-0 -70481-4 0  9992,2 50194  53.2183   1.5062 0001198 103.7532 256.3594 15.08841310 75284,6917.876,95.437,540.57,538.913,0.0
50194.0,STARLINK-3269,PAYLOAD,2023-04-05 02:49:42,15.08843504,0.0001077,53.2174,0.6125,96.3837,263.7278,7.1372e-05,8.48e-06,0.0,0 STARLINK-3269,1 50194U 21125AQ  23095.11784893  .00000848  00000-0  71372-4 0  9994,2 50194  53.2174   0.6125 0001077  96.3837 263.7278 15.08843504 74787,6917.87,95.437,540.48,538.99,0.0
50194.0,STARLINK-3269,PAYLOAD,2023-04-05 21:54:20,15.08839079,0.0001051,53.2174,357.0453,99.2341,260.877,-1.3534e-05,-5.03e-06,0.0,0 STARLINK-3269,1 50194U 21125AQ  23095.91273425 -.00000503  00000-0 -13534-4 0  9992,2 50194  53.2174 357.0453 0001051  99.2341 260.8770 15.08839079 74905,6917.883,95.438,540.475,539.021,0.0
50194.0,STARLINK-3269,PAYLOAD,2023-04-06 02:40:29,15.08844552,0.000116,53.2173,356.1532,94.0893,266.0231,7.9564e-05,9.79e-06,0.0,0 STARLINK-3269,1 50194U 21125AQ  23096.11145115  .00000979  00000-0  79564-4 0  9999,2 50194  53.2173 356.1532 0001160  94.0893 266.0231 15.08844552 75462,6917.866,95.437,540.534,538.929,0.0
50194.0,STARLINK-3269,PAYLOAD,2023-04-07 02:31:16,15.08842146,0.0001203,53.218,351.6912,86.1489,273.964,9.9915e-05,1.303e-05,0.0,0 STARLINK-3269,1 50194U 21125AQ  23097.10505505  .00001303  00000-0  99915-4 0  9996,2 50194  53.2180 351.6912 0001203  86.1489 273.9640 15.08842146 75089,6917.874,95.437,540.571,538.907,0.0
50194.0,STARLINK-3269,PAYLOAD,2023-04-08 02:22:03,15.08853801,0.0001127,53.2164,347.2324,85.5511,274.561,0.00020252,2.938e-05,0.0,0 STARLINK-3269,1 50194U 21125AQ  23098.09864732  .00002938  00000-0  20252-3 0  9997,2 50194  53.2164 347.2324 0001127  85.5511 274.5610 15.08853801 75234,6917.838,95.437,540.483,538.924,0.0
50194.0,STARLINK-3269,PAYLOAD,2023-04-08 19:51:18,15.08834565,9.48e-05,53.216,343.962,90.2907,269.8193,-3.7215e-05,-8.8e-06,0.0,0 STARLINK-3269,1 50194U 21125AQ  23098.82729892 -.00000880  00000-0 -37215-4 0  9999,2 50194  53.2160 343.9620 0000948  90.2907 269.8193 15.08834565 75345,6917.897,95.438,540.418,539.106,0.0
50194.0,STARLINK-3269,PAYLOAD,2023-04-09 02:12:50,15.08840758,9.75e-05,53.2171,342.7713,87.054,273.0564,6.4008e-05,7.31e-06,0.0,0 STARLINK-3269,1 50194U 21125AQ  23099.09225647  .00000731  00000-0  64008-4 0  9991,2 50194  53.2171 342.7713 0000975  87.0540 273.0564 15.08840758 75917,6917.878,95.438,540.418,539.069,0.0
50194.0,STARLINK-3269,PAYLOAD,2023-04-09 22:52:51,15.08845029,0.0001223,53.2168,338.9055,88.6164,271.4969,6.0575e-05,6.76e-06,0.0,0 STARLINK-3269,1 50194U 21125AQ  23099.95337308  .00000676  00000-0  60575-4 0  9997,2 50194  53.2168 338.9055 0001223  88.6164 271.4969 15.08845029 75518,6917.865,95.437,540.576,538.884,0.0
50194.0,STARLINK-3269,PAYLOAD,2023-04-10 02:03:37,15.08849382,8.93e-05,53.2168,338.3112,87.6949,272.4145,0.0001438,2.002e-05,0.0,0 STARLINK-3269,1 50194U 21125AQ  23100.08585107  .00002002  00000-0  14380-3 0  9993,2 50194  53.2168 338.3112 0000893  87.6949 272.4145 15.08849382 76062,6917.852,95.437,540.334,539.099,0.0
50194.0,STARLINK-3269,PAYLOAD,2023-04-10 22:43:38,15.08844905,7.58e-05,53.2167,334.4452,99.6407,260.4671,0.00014868,2.08e-05,0.0,0 STARLINK-3269,1 50194U 21125AQ  23100.94697355  .00002080  00000-0  14868-3 0  9994,2 50194  53.2167 334.4452 0000758  99.6407 260.4671 15.08844905 76198,6917.865,95.437,540.255,539.206,0.0
50194.0,STARLINK-3269,PAYLOAD,2023-04-11 00:19:01,15.08845964,8.64e-05,53.2168,334.1498,93.8867,266.2224,0.00014023,1.945e-05,0.0,0 STARLINK-3269,1 50194U 21125AQ  23101.01321184  .00001945  00000-0  14023-3 0  9999,2 50194  53.2168 334.1498 0000864  93.8867 266.2224 15.08845964 76206,6917.862,95.437,540.325,539.129,0.0
